%OPS 5111 (NAVSTAR 1)
%1 10684U 78020A   09054.00588353  .00000074  00000-0  10000-3 0  9676
%2 10684 063.0801 245.2342 0065866 177.7286 182.3286 01.98072046211191
20090501 0.0000000000  -0.457928  -2.180979  -3.550763
20090501 0.0833333284  -0.336166  -2.125623  -3.599005
20090501 0.1666666567  -0.211565  -2.072689  -3.640501
20090501 0.2499999851  -0.084411  -2.022373  -3.675177
20090501 0.3333333135   0.045002  -1.974854  -3.702976
20090501 0.4166666418   0.176367  -1.930293  -3.723850
20090501 0.4999999702   0.309369  -1.888834  -3.737767
